CSS (TIANHE)            
1 48274U 21035A   24206.09514437  .00019806  00000+0  25095-3 0  9990
2 48274  41.4680 217.7327 0001893 281.3863  78.6762 15.58995545184871
